NORAD_CAT_ID,OBJECT_NAME,OBJECT_TYPE,EPOCH,MEAN_MOTION,ECCENTRICITY,INCLINATION,RA_OF_ASC_NODE,ARG_OF_PERICENTER,MEAN_ANOMALY,BSTAR,MEAN_MOTION_DOT,MEAN_MOTION_DDOT,TLE_LINE0,TLE_LINE1,TLE_LINE2,SEMIMAJOR_AXIS,PERIOD,APOGEE,PERIGEE,DECAYED
52306.0,STARLINK-3747,PAYLOAD,2022-07-25 22:00:00,15.24516853,0.0001753,53.2175,267.2911,43.0499,111.2895,-0.046596,-0.01063739,0.0,0 STARLINK-3747,1 52306U 22041AX  22206.91667824 -.01063739  00000-0 -46596-1 0  9992,2 52306  53.2175 267.2911 0001753  43.0499 111.2895 15.24516853  1305,6870.374,94.456,493.443,491.034,0.0
52306.0,STARLINK-3747,PAYLOAD,2022-07-26 06:00:00,15.23756814,0.0001805,53.2177,265.7566,44.5479,139.7623,-0.047618,-0.01062648,0.0,0 STARLINK-3747,1 52306U 22041AX  22207.25001157 -.01062648  00000-0 -47618-1 0  9995,2 52306  53.2177 265.7566 0001805  44.5479 139.7623 15.23756814 16210,6872.658,94.503,495.764,493.283,0.0
52306.0,STARLINK-3747,PAYLOAD,2022-07-26 14:00:01,15.22995051,0.0001587,53.2176,264.2252,55.8035,157.5649,-0.0485149999999999,-0.01058601,0.0,0 STARLINK-3747,1 52306U 22041AX  22207.58334491 -.01058601  00000-0 -48515-1 0  9992,2 52306  53.2176 264.2252 0001587  55.8035 157.5649 15.22995051  1302,6874.95,94.551,497.906,495.723,0.0
52306.0,STARLINK-3747,PAYLOAD,2022-07-26 22:00:00,15.22238571,0.0001465999999999,53.2176,262.6923,59.7438,181.7702,-0.049877,-0.01063612,0.0,0 STARLINK-3747,1 52306U 22041AX  22207.91667824 -.01063612  00000-0 -49877-1 0  9998,2 52306  53.2176 262.6923 0001466  59.7438 181.7702 15.22238571  1301,6877.227,94.598,500.1,498.084,0.0
52306.0,STARLINK-3747,PAYLOAD,2022-07-27 14:00:01,15.20717227,0.0001501,53.2175,259.6372,51.5962,243.4705,-0.05193,-0.01059097,0.0,0 STARLINK-3747,1 52306U 22041AX  22208.58334491 -.01059097  00000-0 -51930-1 0  9998,2 52306  53.2175 259.6372 0001501  51.5962 243.4705 15.20717227  1303,6881.813,94.692,504.711,502.645,0.0
52306.0,STARLINK-3747,PAYLOAD,2022-07-27 22:00:00,15.19959665,0.0001526,53.2175,258.1097,44.7782,275.6968,-0.053314,-0.01063044,0.0,0 STARLINK-3747,1 52306U 22041AX  22208.91667824 -.01063044  00000-0 -53314-1 0  9999,2 52306  53.2175 258.1097 0001526  44.7782 275.6968 15.19959665  1302,6884.099,94.739,507.015,504.914,0.0
52306.0,STARLINK-3747,PAYLOAD,2022-07-28 06:00:00,15.1920093,0.0001628,53.2177,256.586,40.6625,304.3067,-0.054554,-0.01063846,0.0,0 STARLINK-3747,1 52306U 22041AX  22209.25001157 -.01063846  00000-0 -54554-1 0  9995,2 52306  53.2177 256.5860 0001628  40.6625 304.3067 15.19200930 16522,6886.391,94.787,509.377,507.135,0.0
52306.0,STARLINK-3747,PAYLOAD,2022-07-28 14:00:01,15.18439237,0.0001496999999999,53.2175,255.0652,45.7527,322.7987,-0.055553,-0.01073286,0.0,0 STARLINK-3747,1 52306U 22041AX  22209.58334491 -.01073286  00000-0 -55553-1 0  9990,2 52306  53.2175 255.0652 0001497  45.7527 322.7987 15.18439237  1302,6888.694,94.834,511.59,509.528,0.0
52306.0,STARLINK-3747,PAYLOAD,2022-07-28 22:00:00,15.17680198,0.0001675,53.2175,253.5429,37.1059,354.1164,-0.056891,-0.01075126,0.0,0 STARLINK-3747,1 52306U 22041AX  22209.91667824 -.01075126  00000-0 -56891-1 0  9997,2 52306  53.2175 253.5429 0001675  37.1059 354.1164 15.17680198  1309,6890.991,94.882,514.01,511.701,0.0
52306.0,STARLINK-3747,PAYLOAD,2022-07-29 06:00:00,15.16922466,0.000173,53.2176,252.0249,38.8782,14.0997,-0.058294,-0.01077641,0.0,0 STARLINK-3747,1 52306U 22041AX  22210.25001157 -.01077641  00000-0 -58294-1 0  9990,2 52306  53.2176 252.0249 0001730  38.8782  14.0997 15.16922466 16675,6893.285,94.929,516.3430000000002,513.9580000000002,0.0
52306.0,STARLINK-3747,PAYLOAD,2022-07-29 14:00:01,15.16159875,0.000162,53.2173,250.5091,44.1451,29.6774,-0.059246,-0.01071937,0.0,0 STARLINK-3747,1 52306U 22041AX  22210.58334491 -.01071937  00000-0 -59246-1 0  9996,2 52306  53.2173 250.5091 0001620  44.1451  29.6774 15.16159875  1306,6895.597,94.977,518.5790000000002,516.344,0.0
52306.0,STARLINK-3747,PAYLOAD,2022-07-29 22:00:00,15.15400974,0.0001689,53.2174,248.9921,41.79600000000001,51.9593,-0.060657,-0.01073776,0.0,0 STARLINK-3747,1 52306U 22041AX  22210.91667824 -.01073776  00000-0 -60657-1 0  9993,2 52306  53.2174 248.9921 0001689  41.7960  51.9593 15.15400974  1308,6897.899,95.024,520.929,518.5980000000002,0.0
52306.0,STARLINK-3747,PAYLOAD,2022-07-30 06:00:00,15.14642924,0.0001943999999999,53.2174,247.4795,37.2593,75.5139,-0.0621179999999999,-0.01076029,0.0,0 STARLINK-3747,1 52306U 22041AX  22211.25001157 -.01076029  00000-0 -62118-1 0  9990,2 52306  53.2174 247.4795 0001944  37.2593  75.5139 15.14642924 16820,6900.2,95.072,523.406,520.7230000000002,0.0
52306.0,STARLINK-3747,PAYLOAD,2022-07-30 14:00:01,15.1388077,0.0001683,53.2172,245.9689,47.6396,83.2401,-0.063147,-0.01070824,0.0,0 STARLINK-3747,1 52306U 22041AX  22211.58334491 -.01070824  00000-0 -63147-1 0  9996,2 52306  53.2172 245.9689 0001683  47.6396  83.2401 15.13880770  1306,6902.516,95.12,525.5419999999998,523.219,0.0
52306.0,STARLINK-3747,PAYLOAD,2022-07-30 22:00:00,15.13122153,0.0001759,53.2173,244.4573,44.2159,103.8584,-0.0646549999999999,-0.01073003,0.0,0 STARLINK-3747,1 52306U 22041AX  22211.91667824 -.01073003  00000-0 -64655-1 0  9999,2 52306  53.2173 244.4573 0001759  44.2159 103.8584 15.13122153  1302,6904.821999999999,95.167,527.9019999999998,525.4730000000002,0.0
52306.0,STARLINK-3747,PAYLOAD,2022-07-31 06:00:02,15.12363051,0.0001984,53.2174,242.9499,39.6665,124.751,-0.066088,-0.01073614,0.0,0 STARLINK-3747,1 52306U 22041AX  22212.25002315 -.01073614  00000-0 -66088-1 0  9995,2 52306  53.2174 242.9499 0001984  39.6665 124.7510 15.12363051 16976,6907.1330000000025,95.215,530.368,527.627,0.0
52306.0,STARLINK-3747,PAYLOAD,2022-07-31 14:00:01,15.11602628,0.0001813,53.2172,241.4445,44.9229,134.7995,-0.067352,-0.01071247,0.0,0 STARLINK-3747,1 52306U 22041AX  22212.58334491 -.01071247  00000-0 -67352-1 0  9999,2 52306  53.2172 241.4445 0001813  44.9229 134.7995 15.11602628  1309,6909.449000000001,95.263,532.567,530.061,0.0
52306.0,STARLINK-3747,PAYLOAD,2022-07-31 22:00:00,15.10843416,0.000188,53.2173,239.9382,41.12300000000001,153.0562,-0.068871,-0.0107238,0.0,0 STARLINK-3747,1 52306U 22041AX  22212.91667824 -.01072380  00000-0 -68871-1 0  9991,2 52306  53.2173 239.9382 0001880  41.1230 153.0562 15.10843416  1302,6911.764,95.311,534.928,532.3290000000002,0.0
52306.0,STARLINK-3747,PAYLOAD,2022-08-01 06:00:00,15.1008359,0.0002110999999999,53.2174,238.4364,36.0365,171.685,-0.070287,-0.0107167,0.0,0 STARLINK-3747,1 52306U 22041AX  22213.25001157 -.01071670  00000-0 -70287-1 0  9995,2 52306  53.2174 238.4364 0002111  36.0365 171.6850 15.10083590 17129,6914.081999999999,95.359,537.406,534.487,0.0
52306.0,STARLINK-3747,PAYLOAD,2022-08-01 14:00:01,15.09325202,0.0001704,53.2171,236.9361,49.8672,170.4837,-0.071873,-0.01072927,0.0,0 STARLINK-3747,1 52306U 22041AX  22213.58334491 -.01072927  00000-0 -71873-1 0  9999,2 52306  53.2171 236.9361 0001704  49.8672 170.4837 15.09325202  1308,6916.398,95.407,539.441,537.0840000000002,0.0
52306.0,STARLINK-3747,PAYLOAD,2022-08-01 22:00:00,15.08567095,0.0001764,53.2173,235.4353,41.9196,190.1498,-0.073742,-0.01077704,0.0,0 STARLINK-3747,1 52306U 22041AX  22213.91667824 -.01077704  00000-0 -73742-1 0  9990,2 52306  53.2173 235.4353 0001764  41.9196 190.1498 15.08567095  1304,6918.715,95.455,541.8,539.359,0.0
52306.0,STARLINK-3747,PAYLOAD,2022-08-02 06:00:02,15.07683953,0.0001914,53.2174,233.9402,33.6996,209.2517,-0.038844,-0.00560852,0.0,0 STARLINK-3747,1 52306U 22041AX  22214.25002315 -.00560852  00000-0 -38844-1 0  9990,2 52306  53.2174 233.9402 0001914  33.6996 209.2517 15.07683953 17274,6921.416,95.511,544.606,541.956,0.0
52306.0,STARLINK-3747,PAYLOAD,2022-08-02 14:00:01,15.07199086,0.0001597,53.2171,232.4468,46.9572,205.9051,0.00029017,4.135e-05,0.0,0 STARLINK-3747,1 52306U 22041AX  22214.58334491  .00004135  00000-0  29017-3 0  9998,2 52306  53.2171 232.4468 0001597  46.9572 205.9051 15.07199086  1303,6922.901,95.541,545.871,543.66,0.0
52306.0,STARLINK-3747,PAYLOAD,2022-08-03 14:00:01,15.07222597,0.0001981,53.2125,227.9761,34.5094,247.2563,-0.0040743,-0.00061798,0.0,0 STARLINK-3747,1 52306U 22041AX  22215.58334491 -.00061798  00000-0 -40743-2 0  9997,2 52306  53.2125 227.9761 0001981  34.5094 247.2563 15.07222597  1307,6922.829000000002,95.54,546.065,543.322,0.0
52306.0,STARLINK-3747,PAYLOAD,2022-08-03 22:00:01,15.07151651,0.0001761,53.2126,226.4817,38.3372,253.1276,0.0028131,0.00042735,0.0,0 STARLINK-3747,1 52306U 22041AX  22215.91668981  .00042735  00000-0  28131-2 0  9993,2 52306  53.2126 226.4817 0001761  38.3372 253.1276 15.07151651 17532,6923.045999999999,95.544,546.13,543.692,0.0
52306.0,STARLINK-3747,PAYLOAD,2022-08-04 14:00:01,15.07210173,0.000204,53.2122,223.498,37.005,273.5741,-0.0010829,-0.00016732,0.0,0 STARLINK-3747,1 52306U 22041AX  22216.58334491 -.00016732  00000-0 -10829-2 0  9998,2 52306  53.2122 223.4980 0002040  37.0050 273.5741 15.07210173 17635,6922.8669999999975,95.541,546.144,543.319,0.0
52306.0,STARLINK-3747,PAYLOAD,2022-08-04 22:00:00,15.07180333,0.0001872,53.2123,222.0038,43.0444,277.1739,0.002868,0.00043614,0.0,0 STARLINK-3747,1 52306U 22041AX  22216.91667824  .00043614  00000-0  28680-2 0  9995,2 52306  53.2123 222.0038 0001872  43.0444 277.1739 15.07180333  1309,6922.958000000001,95.543,546.119,543.5269999999998,0.0
52306.0,STARLINK-3747,PAYLOAD,2022-08-05 14:00:01,15.07216598,0.0002096,53.2118,219.0199,38.803,300.7267,-0.0014862,-0.00022842,0.0,0 STARLINK-3747,1 52306U 22041AX  22217.58335648 -.00022842  00000-0 -14862-2 0  9994,2 52306  53.2118 219.0199 0002096  38.8030 300.7267 15.07216598  1301,6922.847,95.54,546.163,543.261,0.0
52306.0,STARLINK-3747,PAYLOAD,2022-08-05 22:00:00,15.07186338,0.0001943,53.2132,217.5238,44.9498,304.1616,0.0027522,0.00041838,0.0,0 STARLINK-3747,1 52306U 22041AX  22217.91667824  .00041838  00000-0  27522-2 0  9996,2 52306  53.2132 217.5238 0001943  44.9498 304.1616 15.07186338  1304,6922.94,95.542,546.15,543.4590000000002,0.0
